{
  "type": "FeatureCollection",
  "features": [
    {
      "type": "Feature",
      "properties": {
        "norad_id": 35663,
        "name": "COSMOS 2251 DEB",
        "group": "cosmos-2251-debris",
        "lat": 65.70868626170662,
        "lon": -80.76574124061626,
        "alt_km": 669.8781524398664,
        "timestamp": "2025-12-05T11:32:56.413683+00:00",
        "meta_object_name": "COSMOS 2251 DEB",
        "meta_object_id": "1993-036APE",
        "meta_epoch": "2025-11-30T11:26:45.384288",
        "meta_mean_motion": 14.65332391,
        "meta_eccentricity": 0.00074535,
        "meta_inclination": 74.0171,
        "meta_ra_of_asc_node": 148.2949,
        "meta_arg_of_pericenter": 219.2944,
        "meta_mean_anomaly": 140.7685,
        "meta_ephemeris_type": 0,
        "meta_classification_type": "U",
        "meta_norad_cat_id": 35663,
        "meta_element_set_no": 999,
        "meta_rev_at_epoch": 73202,
        "meta_bstar": 0.0015821861,
        "meta_mean_motion_dot": 8.525e-05,
        "meta_mean_motion_ddot": 0,
        "tle_line1": "1 35663U 93036APE 25334.47691417  .00008525  00000+0  15822-2 0  9999",
        "tle_line2": "2 35663  74.0171 148.2949 0007453 219.2944 140.7685 14.65332391732024"
      },
      "geometry": {
        "type": "Point",
        "coordinates": [
          -80.76574124061626,
          65.70868626170662
        ]
      }
    },
    {
      "type": "Feature",
      "properties": {
        "norad_id": 35667,
        "name": "COSMOS 2251 DEB",
        "group": "cosmos-2251-debris",
        "lat": -53.12980285762757,
        "lon": 131.53303679577854,
        "alt_km": 699.7424052133983,
        "timestamp": "2025-12-05T11:32:56.413692+00:00",
        "meta_object_name": "COSMOS 2251 DEB",
        "meta_object_id": "1993-036APJ",
        "meta_epoch": "2025-12-03T05:32:00.225024",
        "meta_mean_motion": 14.59863315,
        "meta_eccentricity": 0.0020461,
        "meta_inclination": 74.0542,
        "meta_ra_of_asc_node": 158.2289,
        "meta_arg_of_pericenter": 220.1527,
        "meta_mean_anomaly": 139.8128,
        "meta_ephemeris_type": 0,
        "meta_classification_type": "U",
        "meta_norad_cat_id": 35667,
        "meta_element_set_no": 999,
        "meta_rev_at_epoch": 70664,
        "meta_bstar": 0.0013542,
        "meta_mean_motion_dot": 6.475e-05,
        "meta_mean_motion_ddot": 0,
        "tle_line1": "1 35667U 93036APJ 25337.23055816  .00006475  00000+0  13542-2 0  9996",
        "tle_line2": "2 35667  74.0542 158.2289 0020461 220.1527 139.8128 14.59863315706648"
      },
      "geometry": {
        "type": "Point",
        "coordinates": [
          131.53303679577854,
          -53.12980285762757
        ]
      }
    },
    {
      "type": "Feature",
      "properties": {
        "norad_id": 35668,
        "name": "COSMOS 2251 DEB",
        "group": "cosmos-2251-debris",
        "lat": -45.271555715697424,
        "lon": -142.33181380846804,
        "alt_km": 635.3794196718636,
        "timestamp": "2025-12-05T11:32:56.413703+00:00",
        "meta_object_name": "COSMOS 2251 DEB",
        "meta_object_id": "1993-036APK",
        "meta_epoch": "2025-12-04T09:31:18.055200",
        "meta_mean_motion": 14.63947541,
        "meta_eccentricity": 0.0082977,
        "meta_inclination": 74.0461,
        "meta_ra_of_asc_node": 236.5342,
        "meta_arg_of_pericenter": 343.6031,
        "meta_mean_anomaly": 16.2454,
        "meta_ephemeris_type": 0,
        "meta_classification_type": "U",
        "meta_norad_cat_id": 35668,
        "meta_element_set_no": 999,
        "meta_rev_at_epoch": 87525,
        "meta_bstar": 0.00065787,
        "meta_mean_motion_dot": 3.589e-05,
        "meta_mean_motion_ddot": 0,
        "tle_line1": "1 35668U 93036APK 25338.39673675  .00003589  00000+0  65787-3 0  9996",
        "tle_line2": "2 35668  74.0461 236.5342 0082977 343.6031  16.2454 14.63947541875253"
      },
      "geometry": {
        "type": "Point",
        "coordinates": [
          -142.33181380846804,
          -45.271555715697424
        ]
      }
    },
    {
      "type": "Feature",
      "properties": {
        "norad_id": 35669,
        "name": "COSMOS 2251 DEB",
        "group": "cosmos-2251-debris",
        "lat": -15.110361631426747,
        "lon": -4.324932772010314,
        "alt_km": 1033.4472063793955,
        "timestamp": "2025-12-05T11:32:56.413713+00:00",
        "meta_object_name": "COSMOS 2251 DEB",
        "meta_object_id": "1993-036APL",
        "meta_epoch": "2025-12-03T21:23:42.149184",
        "meta_mean_motion": 13.57134195,
        "meta_eccentricity": 0.0387239,
        "meta_inclination": 73.852,
        "meta_ra_of_asc_node": 173.7821,
        "meta_arg_of_pericenter": 287.3475,
        "meta_mean_anomaly": 68.5633,
        "meta_ephemeris_type": 0,
        "meta_classification_type": "U",
        "meta_norad_cat_id": 35669,
        "meta_element_set_no": 999,
        "meta_rev_at_epoch": 60669,
        "meta_bstar": 0.0017031,
        "meta_mean_motion_dot": 1.95e-05,
        "meta_mean_motion_ddot": 0,
        "tle_line1": "1 35669U 93036APL 25337.89146006  .00001950  00000+0  17031-2 0  9992",
        "tle_line2": "2 35669  73.8520 173.7821 0387239 287.3475  68.5633 13.57134195606690"
      },
      "geometry": {
        "type": "Point",
        "coordinates": [
          -4.324932772010314,
          -15.110361631426747
        ]
      }
    },
    {
      "type": "Feature",
      "properties": {
        "norad_id": 35670,
        "name": "COSMOS 2251 DEB",
        "group": "cosmos-2251-debris",
        "lat": -2.41629017954488,
        "lon": -100.0750625004444,
        "alt_km": 609.3776087189362,
        "timestamp": "2025-12-05T11:32:56.413723+00:00",
        "meta_object_name": "COSMOS 2251 DEB",
        "meta_object_id": "1993-036APM",
        "meta_epoch": "2025-12-03T00:51:50.152032",
        "meta_mean_motion": 14.93482129,
        "meta_eccentricity": 0.00369334,
        "meta_inclination": 73.8945,
        "meta_ra_of_asc_node": 84.1864,
        "meta_arg_of_pericenter": 48.0359,
        "meta_mean_anomaly": 312.396,
        "meta_ephemeris_type": 0,
        "meta_classification_type": "U",
        "meta_norad_cat_id": 35670,
        "meta_element_set_no": 999,
        "meta_rev_at_epoch": 87582,
        "meta_bstar": 0.001906882,
        "meta_mean_motion_dot": 0.00020358,
        "meta_mean_motion_ddot": 0,
        "tle_line1": "1 35670U 93036APM 25337.03599713  .00020358  00000+0  19069-2 0  9993",
        "tle_line2": "2 35670  73.8945  84.1864 0036933  48.0359 312.3960 14.93482129875820"
      },
      "geometry": {
        "type": "Point",
        "coordinates": [
          -100.0750625004444,
          -2.41629017954488
        ]
      }
    },
    {
      "type": "Feature",
      "properties": {
        "norad_id": 35671,
        "name": "COSMOS 2251 DEB",
        "group": "cosmos-2251-debris",
        "lat": 7.274133442041276,
        "lon": 95.02254797621904,
        "alt_km": 737.5792988477269,
        "timestamp": "2025-12-05T11:32:56.413733+00:00",
        "meta_object_name": "COSMOS 2251 DEB",
        "meta_object_id": "1993-036APN",
        "meta_epoch": "2025-12-03T02:19:30.985824",
        "meta_mean_motion": 14.48319371,
        "meta_eccentricity": 0.00415489,
        "meta_inclination": 74.0174,
        "meta_ra_of_asc_node": 97.3946,
        "meta_arg_of_pericenter": 273.0899,
        "meta_mean_anomaly": 267.4122,
        "meta_ephemeris_type": 0,
        "meta_classification_type": "U",
        "meta_norad_cat_id": 35671,
        "meta_element_set_no": 999,
        "meta_rev_at_epoch": 86623,
        "meta_bstar": 0.0003210329,
        "meta_mean_motion_dot": 1.185e-05,
        "meta_mean_motion_ddot": 0,
        "tle_line1": "1 35671U 93036APN 25337.09688641  .00001185  00000+0  32103-3 0  9991",
        "tle_line2": "2 35671  74.0174  97.3946 0041548 273.0899 267.4122 14.48319371866235"
      },
      "geometry": {
        "type": "Point",
        "coordinates": [
          95.02254797621904,
          7.274133442041276
        ]
      }
    },
    {
      "type": "Feature",
      "properties": {
        "norad_id": 35674,
        "name": "COSMOS 2251 DEB",
        "group": "cosmos-2251-debris",
        "lat": 73.69184791021337,
        "lon": 72.56046124396997,
        "alt_km": 688.9014335851443,
        "timestamp": "2025-12-05T11:32:56.413744+00:00",
        "meta_object_name": "COSMOS 2251 DEB",
        "meta_object_id": "1993-036APR",
        "meta_epoch": "2025-12-04T08:42:25.000704",
        "meta_mean_motion": 14.5399019,
        "meta_eccentricity": 0.00959981,
        "meta_inclination": 74.0595,
        "meta_ra_of_asc_node": 332.3254,
        "meta_arg_of_pericenter": 19.0839,
        "meta_mean_anomaly": 341.3879,
        "meta_ephemeris_type": 0,
        "meta_classification_type": "U",
        "meta_norad_cat_id": 35674,
        "meta_element_set_no": 999,
        "meta_rev_at_epoch": 85989,
        "meta_bstar": 0.0039523781,
        "meta_mean_motion_dot": 0.00017726,
        "meta_mean_motion_ddot": 0,
        "tle_line1": "1 35674U 93036APR 25338.36278936  .00017726  00000+0  39524-2 0  9998",
        "tle_line2": "2 35674  74.0595 332.3254 0095998  19.0839 341.3879 14.53990190859894"
      },
      "geometry": {
        "type": "Point",
        "coordinates": [
          72.56046124396997,
          73.69184791021337
        ]
      }
    }
  ]
}